[{"OBJECT_NAME":"STARLINK-31850","OBJECT_ID":"2024-100U","EPOCH":"2026-03-09T12:24:31.788576","MEAN_MOTION":15.27564513,"ECCENTRICITY":0.00010057,"INCLINATION":42.9977,"RA_OF_ASC_NODE":126.0864,"ARG_OF_PERICENTER":264.5512,"MEAN_ANOMALY":95.5225,"EPHEMERIS_TYPE":0,"CLASSIFICATION_TYPE":"U","NORAD_CAT_ID":59903,"ELEMENT_SET_NO":999,"REV_AT_EPOCH":10107,"BSTAR":6.150559e-6,"MEAN_MOTION_DOT":-9.3e-7,"MEAN_MOTION_DDOT":0},{"OBJECT_NAME":"CZ-6A DEB","OBJECT_ID":"2022-151DE","EPOCH":"2026-03-09T09:45:43.657920","MEAN_MOTION":15.34292219,"ECCENTRICITY":0.00393756,"INCLINATION":99.0022,"RA_OF_ASC_NODE":218.5596,"ARG_OF_PERICENTER":192.6197,"MEAN_ANOMALY":167.4059,"EPHEMERIS_TYPE":0,"CLASSIFICATION_TYPE":"U","NORAD_CAT_ID":54359,"ELEMENT_SET_NO":999,"REV_AT_EPOCH":10560,"BSTAR":0.0065240017,"MEAN_MOTION_DOT":0.00228186,"MEAN_MOTION_DDOT":0}]
